NORAD_CAT_ID,OBJECT_NAME,OBJECT_TYPE,EPOCH,MEAN_MOTION,ECCENTRICITY,INCLINATION,RA_OF_ASC_NODE,ARG_OF_PERICENTER,MEAN_ANOMALY,BSTAR,MEAN_MOTION_DOT,MEAN_MOTION_DDOT,TLE_LINE0,TLE_LINE1,TLE_LINE2,SEMIMAJOR_AXIS,PERIOD,APOGEE,PERIGEE,DECAYED
53002.0,STARLINK-4121,PAYLOAD,2024-01-14 05:03:45,15.0883913,0.0001758,53.2186,20.2737,93.0812,267.0381,9.4907e-05,1.223e-05,0.0,0 STARLINK-4121,1 53002U 22076S   24014.21094072  .00001223  00000-0  94907-4 0  9994,2 53002  53.2186  20.2737 0001758  93.0812 267.0381 15.08839130 84739,6917.883,95.438,540.964,538.532,0.0
53002.0,STARLINK-4121,PAYLOAD,2024-01-14 06:39:08,15.088405,0.0001818,53.219,19.9762,90.0224,270.0977,9.7683e-05,1.267e-05,0.0,0 STARLINK-4121,1 53002U 22076S   24014.27718013  .00001267  00000-0  97683-4 0  9990,2 53002  53.2190  19.9762 0001818  90.0224 270.0977 15.08840500 84275,6917.879,95.438,541.002,538.486,0.0
53002.0,STARLINK-4121,PAYLOAD,2024-01-15 09:40:40,15.08854492,0.0001697,53.2185,14.9189,105.8841,254.2338,0.00015374,2.161e-05,0.0,0 STARLINK-4121,1 53002U 22076S   24015.40324889  .00002161  00000-0  15374-3 0  9990,2 53002  53.2185  14.9189 0001697 105.8841 254.2338 15.08854492 84913,6917.836,95.437,540.875,538.527,0.0
53002.0,STARLINK-4121,PAYLOAD,2024-01-16 09:31:29,15.08835525,0.0001636,53.2191,10.4597,81.685,278.4328,-3.7103e-06,-3.47e-06,0.0,0 STARLINK-4121,1 53002U 22076S   24016.39686489 -.00000347  00000-0 -37103-5 0  9998,2 53002  53.2191  10.4597 0001636  81.6850 278.4328 15.08835525 85068,6917.894,95.438,540.891,538.627,0.0
53002.0,STARLINK-4121,PAYLOAD,2024-01-17 04:36:05,15.08852935,0.0002102,53.2186,6.8889,130.3923,229.7253,0.00015484,2.178e-05,0.0,0 STARLINK-4121,1 53002U 22076S   24017.19173404  .00002178  00000-0  15484-3 0  9993,2 53002  53.2186   6.8889 0002102 130.3923 229.7253 15.08852935 85180,6917.841,95.437,541.16,538.252,0.0
53002.0,STARLINK-4121,PAYLOAD,2024-01-18 02:51:30,15.08838713,0.000146,53.2182,2.7257,95.6535,264.4624,9.815e-05,1.274e-05,0.0,0 STARLINK-4121,1 53002U 22076S   24018.11910525  .00001274  00000-0  98150-4 0  9997,2 53002  53.2182   2.7257 0001460  95.6535 264.4624 15.08838713 85320,6917.884,95.438,540.759,538.739,0.0
53002.0,STARLINK-4121,PAYLOAD,2024-01-18 21:56:08,15.08837661,0.000142,53.2179,359.1611,85.9867,274.1288,3.8755e-05,3.29e-06,0.0,0 STARLINK-4121,1 53002U 22076S   24018.91398726  .00000329  00000-0  38755-4 0  9993,2 53002  53.2179 359.1611 0001420  85.9867 274.1288 15.08837661 84970,6917.888,95.438,540.735,538.77,0.0
53002.0,STARLINK-4121,PAYLOAD,2024-01-19 07:28:26,15.08858734,0.0001431,53.2178,357.374,113.6226,246.4917,6.1148e-05,6.86e-06,0.0,0 STARLINK-4121,1 53002U 22076S   24019.31141486  .00000686  00000-0  61148-4 0  9995,2 53002  53.2178 357.3740 0001431 113.6226 246.4917 15.08858734 85507,6917.823,95.436,540.678,538.698,0.0
53002.0,STARLINK-4121,PAYLOAD,2024-01-20 04:08:27,15.08843952,0.0001764,53.216,353.5069,130.42,229.6946,0.00011241,1.502e-05,0.0,0 STARLINK-4121,1 53002U 22076S   24020.17254055  .00001502  00000-0  11241-3 0  9994,2 53002  53.2160 353.5069 0001764 130.4200 229.6946 15.08843952 85633,6917.868,95.437,540.954,538.513,0.0
53002.0,STARLINK-4121,PAYLOAD,2024-01-20 07:19:13,15.08847396,0.0001422,53.2173,352.9149,93.7986,266.3169,0.00019239,2.776e-05,0.0,0 STARLINK-4121,1 53002U 22076S   24020.30502193  .00002776  00000-0  19239-3 0  9997,2 53002  53.2173 352.9149 0001422  93.7986 266.3169 15.08847396 85183,6917.858,95.437,540.707,538.739,0.0
53002.0,STARLINK-4121,PAYLOAD,2024-01-20 21:37:42,15.08836914,0.0001483,53.2174,350.2367,103.5922,256.5235,-6.5296e-05,-1.327e-05,0.0,0 STARLINK-4121,1 53002U 22076S   24020.90118802 -.00001327  00000-0 -65296-4 0  9991,2 53002  53.2174 350.2367 0001483 103.5922 256.5235 15.08836914 85273,6917.89,95.438,540.781,538.729,0.0
53002.0,STARLINK-4121,PAYLOAD,2024-01-21 03:59:15,15.0884237,0.0001514,53.2172,349.0474,105.6459,254.47,4.3852e-05,4.1e-06,0.0,0 STARLINK-4121,1 53002U 22076S   24021.16614585  .00000410  00000-0  43852-4 0  9993,2 53002  53.2172 349.0474 0001514 105.6459 254.4700 15.08842370 85782,6917.873,95.437,540.786,538.691,0.0
53002.0,STARLINK-4121,PAYLOAD,2024-01-21 05:34:38,15.08844782,0.0001496,53.2173,348.7503,102.9592,257.1568,9.457e-05,1.218e-05,0.0,0 STARLINK-4121,1 53002U 22076S   24021.23238541  .00001218  00000-0  94570-4 0  9995,2 53002  53.2173 348.7503 0001496 102.9592 257.1568 15.08844782 85320,6917.866,95.437,540.766,538.696,0.0
53002.0,STARLINK-4121,PAYLOAD,2024-01-21 21:28:29,15.08841756,0.0001431,53.2169,345.7772,104.3896,255.7254,0.00019862,2.875e-05,0.0,0 STARLINK-4121,1 53002U 22076S   24021.89478828  .00002875  00000-0  19862-3 0  9991,2 53002  53.2169 345.7772 0001431 104.3896 255.7254 15.08841756 85427,6917.875,95.437,540.73,538.75,0.0
53002.0,STARLINK-4121,PAYLOAD,2024-01-22 03:50:01,15.08853921,0.0001476,53.2169,344.5881,103.0406,257.0751,0.0004413,6.745e-05,0.0,0 STARLINK-4121,1 53002U 22076S   24022.15974424  .00006745  00000-0  44130-3 0  9990,2 53002  53.2169 344.5881 0001476 103.0406 257.0751 15.08853921 85465,6917.838,95.437,540.724,538.682,0.0
53002.0,STARLINK-4121,PAYLOAD,2024-01-22 07:00:48,15.08859533,0.0001512,53.2168,343.9929,102.4869,257.6292,0.00064187,9.948e-05,0.0,0 STARLINK-4121,1 53002U 22076S   24022.29222296  .00009948  00000-0  64187-3 0  9990,2 53002  53.2168 343.9929 0001512 102.4869 257.6292 15.08859533 85952,6917.821,95.436,540.732,538.64,0.0
53002.0,STARLINK-4121,PAYLOAD,2024-01-23 03:40:49,15.08846586,0.0001514,53.2175,340.1281,98.1281,261.9882,0.00023856,3.511e-05,0.0,0 STARLINK-4121,1 53002U 22076S   24023.15334681  .00003511  00000-0  23856-3 0  9996,2 53002  53.2175 340.1281 0001514  98.1281 261.9882 15.08846586 86083,6917.86,95.437,540.773,538.678,0.0
53002.0,STARLINK-4121,PAYLOAD,2024-01-24 03:31:36,15.08848091,0.0001608,53.2184,335.6664,109.6336,250.4829,0.00023846,3.51e-05,0.0,0 STARLINK-4121,1 53002U 22076S   24024.14694490  .00003510  00000-0  23846-3 0  9991,2 53002  53.2184 335.6664 0001608 109.6336 250.4829 15.08848091 86234,6917.856,95.437,540.833,538.608,0.0
53002.0,STARLINK-4121,PAYLOAD,2024-01-25 03:22:23,15.08838887,0.0001589,53.2191,331.2064,112.7382,247.3778,6.8011e-05,7.95e-06,0.0,0 STARLINK-4121,1 53002U 22076S   24025.14054989  .00000795  00000-0  68011-4 0  9991,2 53002  53.2191 331.2064 0001589 112.7382 247.3778 15.08838887 86388,6917.884,95.438,540.848,538.65,0.0
53002.0,STARLINK-4121,PAYLOAD,2024-01-26 01:37:47,15.08840506,0.0001465,53.2184,327.0461,106.2293,253.8861,6.5008e-05,7.47e-06,0.0,0 STARLINK-4121,1 53002U 22076S   24026.06791361  .00000747  00000-0  65008-4 0  9995,2 53002  53.2184 327.0461 0001465 106.2293 253.8861 15.08840506 86056,6917.879,95.438,540.757,538.73,0.0
53002.0,STARLINK-4121,PAYLOAD,2024-01-27 03:03:58,15.08832101,0.0001525,53.2179,322.2877,84.1201,275.9965,0.00065972,0.00010225,0.0,0 STARLINK-4121,1 53002U 22076S   24027.12776333  .00010225  00000-0  65972-3 0  9996,2 53002  53.2179 322.2877 0001525  84.1201 275.9965 15.08832101 86689,6917.905,95.438,540.825,538.715,0.0
53002.0,STARLINK-4121,PAYLOAD,2024-01-27 18:57:50,15.08829344,0.0001692,53.2165,319.3188,67.0349,293.0821,0.00063477,9.826e-05,0.0,0 STARLINK-4121,1 53002U 22076S   24027.79016531  .00009826  00000-0  63477-3 0  9999,2 53002  53.2165 319.3188 0001692  67.0349 293.0821 15.08829344 86311,6917.913,95.438,540.948,538.607,0.0
53002.0,STARLINK-4121,PAYLOAD,2024-01-28 04:30:08,15.08847485,0.0001563,53.2179,317.5298,86.69,273.4271,0.00019566,2.828e-05,0.0,0 STARLINK-4121,1 53002U 22076S   24028.18759548  .00002828  00000-0  19566-3 0  9990,2 53002  53.2179 317.5298 0001563  86.6900 273.4271 15.08847485 86840,6917.858,95.437,540.804,538.641,0.0
53002.0,STARLINK-4121,PAYLOAD,2024-01-29 01:10:09,15.08839427,0.0001578,53.2183,313.6648,89.5014,270.6159,0.00021331,3.108e-05,0.0,0 STARLINK-4121,1 53002U 22076S   24029.04872030  .00003108  00000-0  21331-3 0  9993,2 53002  53.2183 313.6648 0001578  89.5014 270.6159 15.08839427 86970,6917.882,95.438,540.839,538.655,0.0
53002.0,STARLINK-4121,PAYLOAD,2024-01-30 01:00:56,15.08847121,0.0001654,53.2181,309.203,97.6161,262.5019,0.00011269,1.506e-05,0.0,0 STARLINK-4121,1 53002U 22076S   24030.04231504  .00001506  00000-0  11269-3 0  9999,2 53002  53.2181 309.2030 0001654  97.6161 262.5019 15.08847121 86652,6917.859,95.437,540.868,538.579,0.0
53002.0,STARLINK-4121,PAYLOAD,2024-01-30 18:30:10,15.08843082,0.0001733,53.218,305.934,88.2597,271.8594,9.1377e-05,1.167e-05,0.0,0 STARLINK-4121,1 53002U 22076S   24030.77095741  .00001167  00000-0  91377-4 0  9992,2 53002  53.2180 305.9340 0001733  88.2597 271.8594 15.08843082 87233,6917.871,95.437,540.935,538.537,0.0
53002.0,STARLINK-4121,PAYLOAD,2024-01-30 21:40:56,15.08841922,0.0001578,53.2177,305.3403,99.6561,260.4609,5.4657e-05,5.82e-06,0.0,0 STARLINK-4121,1 53002U 22076S   24030.90343642  .00000582  00000-0  54657-4 0  9993,2 53002  53.2177 305.3403 0001578  99.6561 260.4609 15.08841922 86788,6917.875,95.437,540.831,538.648,0.0
53002.0,STARLINK-4121,PAYLOAD,2024-01-31 00:51:43,15.08843419,0.0001562,53.2185,304.7451,96.5551,263.5619,5.8394e-05,6.42e-06,0.0,0 STARLINK-4121,1 53002U 22076S   24031.03591535  .00000642  00000-0  58394-4 0  9993,2 53002  53.2185 304.7451 0001562  96.5551 263.5619 15.08843419 86802,6917.87,95.437,540.816,538.654,0.0
53002.0,STARLINK-4121,PAYLOAD,2024-01-31 18:20:57,15.08836306,0.0001605,53.2184,301.475,96.0804,264.0371,5.0097e-05,5.09e-06,0.0,0 STARLINK-4121,1 53002U 22076S   24031.76455990  .00000509  00000-0  50097-4 0  9991,2 53002  53.2184 301.4750 0001605  96.0804 264.0371 15.08836306 87383,6917.892,95.438,540.867,538.646,0.0
53002.0,STARLINK-4121,PAYLOAD,2024-02-02 00:33:17,15.08837372,0.0001607,53.2178,295.8263,91.4704,268.6472,6.5921e-05,7.61e-06,0.0,0 STARLINK-4121,1 53002U 22076S   24033.02312139  .00000761  00000-0  65921-4 0  9991,2 53002  53.2178 295.8263 0001607  91.4704 268.6472 15.08837372 87578,6917.888,95.438,540.865,538.642,0.0
